{"type": "FeatureCollection", "features": [ {"type": "Feature", "properties": {"norad_id": 34077, "name": "IRIDIUM 33 DEB", "group": "iridium-33-debris", "lat": 49.96285668256898, "lon": 51.325734005312434, "alt_km": 668.1679882989001, "timestamp": "2025-12-22T22:44:21.363463+00:00", "meta": {"OBJECT_NAME": "IRIDIUM 33 DEB", "OBJECT_ID": "1997-051CL", "EPOCH": "2025-12-22T09:27:37.329984", "MEAN_MOTION": 14.64940807, "ECCENTRICITY": 0.00090827, "INCLINATION": 86.3849, "RA_OF_ASC_NODE": 47.2542, "ARG_OF_PERICENTER": 8.0354, "MEAN_ANOMALY": 6.0314, "EPHEMERIS_TYPE": 0, "CLASSIFICATION_TYPE": "U", "NORAD_CAT_ID": 34077, "ELEMENT_SET_NO": 999, "REV_AT_EPOCH": 88474, "BSTAR": 0.00142765, "MEAN_MOTION_DOT": 7.665e-05, "MEAN_MOTION_DDOT": 0}, "tle": {"line1": "1 34077U 97051CL  25356.39418206  .00007665  00000+0  14276-2 0  9992", "line2": "2 34077  86.3849  47.2542 0009082   8.0354   6.0314 14.64940807884742"}}, "geometry": {"type": "Point", "coordinates": [51.325734005312434, 49.96285668256898]}}, {"type": "Feature", "properties": {"norad_id": 34079, "name": "IRIDIUM 33 DEB", "group": "iridium-33-debris", "lat": 10.193652439704618, "lon": 4.671723283171635, "alt_km": 616.6775213711626, "timestamp": "2025-12-22T22:44:21.363473+00:00", "meta": {"OBJECT_NAME": "IRIDIUM 33 DEB", "OBJECT_ID": "1997-051CN", "EPOCH": "2025-12-21T13:15:26.349984", "MEAN_MOTION": 14.83733705, "ECCENTRICITY": 0.000457, "INCLINATION": 86.3769, "RA_OF_ASC_NODE": 4.6535, "ARG_OF_PERICENTER": 336.3629, "MEAN_ANOMALY": 147.0439, "EPHEMERIS_TYPE": 0, "CLASSIFICATION_TYPE": "U", "NORAD_CAT_ID": 34079, "ELEMENT_SET_NO": 999, "REV_AT_EPOCH": 89108, "BSTAR": 0.0012935, "MEAN_MOTION_DOT": 0.00010729, "MEAN_MOTION_DDOT": 0}, "tle": {"line1": "1 34079U 97051CN  25355.55238831  .00010729  00000+0  12935-2 0  9990", "line2": "2 34079  86.3769   4.6535 0004570 336.3629 147.0439 14.83733705891080"}}, "geometry": {"type": "Point", "coordinates": [4.671723283171635, 10.193652439704618]}}, {"type": "Feature", "properties": {"norad_id": 34088, "name": "IRIDIUM 33 DEB", "group": "iridium-33-debris", "lat": 33.26751477076862, "lon": 28.409905729838624, "alt_km": 592.0464549194121, "timestamp": "2025-12-22T22:44:21.363484+00:00", "meta": {"OBJECT_NAME": "IRIDIUM 33 DEB", "OBJECT_ID": "1997-051CX", "EPOCH": "2025-12-22T13:39:24.186816", "MEAN_MOTION": 14.91794999, "ECCENTRICITY": 0.00067858, "INCLINATION": 86.3835, "RA_OF_ASC_NODE": 26.2058, "ARG_OF_PERICENTER": 145.716, "MEAN_ANOMALY": 16.7414, "EPHEMERIS_TYPE": 0, "CLASSIFICATION_TYPE": "U", "NORAD_CAT_ID": 34088, "ELEMENT_SET_NO": 999, "REV_AT_EPOCH": 88888, "BSTAR": 0.0024600846, "MEAN_MOTION_DOT": 0.00024895, "MEAN_MOTION_DDOT": 0}, "tle": {"line1": "1 34088U 97051CX  25356.56902994  .00024895  00000+0  24601-2 0  9992", "line2": "2 34088  86.3835  26.2058 0006785 145.7160  16.7414 14.91794999888886"}}, "geometry": {"type": "Point", "coordinates": [28.409905729838624, 33.26751477076862]}}, {"type": "Feature", "properties": {"norad_id": 34091, "name": "IRIDIUM 33 DEB", "group": "iridium-33-debris", "lat": -53.18046659623184, "lon": -112.94000644768263, "alt_km": 606.4512262984672, "timestamp": "2025-12-22T22:44:21.363495+00:00", "meta": {"OBJECT_NAME": "IRIDIUM 33 DEB", "OBJECT_ID": "1997-051DA", "EPOCH": "2025-12-22T10:20:53.328192", "MEAN_MOTION": 14.82487394, "ECCENTRICITY": 0.00342148, "INCLINATION": 86.3415, "RA_OF_ASC_NODE": 62.3938, "ARG_OF_PERICENTER": 258.5059, "MEAN_ANOMALY": 101.232, "EPHEMERIS_TYPE": 0, "CLASSIFICATION_TYPE": "U", "NORAD_CAT_ID": 34091, "ELEMENT_SET_NO": 999, "REV_AT_EPOCH": 88010, "BSTAR": 0.0054603903, "MEAN_MOTION_DOT": 0.00044519, "MEAN_MOTION_DDOT": 0}, "tle": {"line1": "1 34091U 97051DA  25356.43117278  .00044519  00000+0  54604-2 0  9996", "line2": "2 34091  86.3415  62.3938 0034214 258.5059 101.2320 14.82487394880101"}}, "geometry": {"type": "Point", "coordinates": [-112.94000644768263, -53.18046659623184]}}, {"type": "Feature", "properties": {"norad_id": 34097, "name": "IRIDIUM 33 DEB", "group": "iridium-33-debris", "lat": -3.0553476771203765, "lon": 177.10473853696033, "alt_km": 827.1630953836275, "timestamp": "2025-12-22T22:44:21.363505+00:00", "meta": {"OBJECT_NAME": "IRIDIUM 33 DEB", "OBJECT_ID": "1997-051DG", "EPOCH": "2025-12-22T10:10:07.648896", "MEAN_MOTION": 14.34850685, "ECCENTRICITY": 0.00816282, "INCLINATION": 86.1999, "RA_OF_ASC_NODE": 357.1326, "ARG_OF_PERICENTER": 330.4879, "MEAN_ANOMALY": 29.172, "EPHEMERIS_TYPE": 0, "CLASSIFICATION_TYPE": "U", "NORAD_CAT_ID": 34097, "ELEMENT_SET_NO": 999, "REV_AT_EPOCH": 87258, "BSTAR": 0.0014468202, "MEAN_MOTION_DOT": 4.282e-05, "MEAN_MOTION_DDOT": 0}, "tle": {"line1": "1 34097U 97051DG  25356.42369964  .00004282  00000+0  14468-2 0  9999", "line2": "2 34097  86.1999 357.1326 0081628 330.4879  29.1720 14.34850685872588"}}, "geometry": {"type": "Point", "coordinates": [177.10473853696033, -3.0553476771203765]}}, {"type": "Feature", "properties": {"norad_id": 34145, "name": "IRIDIUM 33 DEB", "group": "iridium-33-debris", "lat": 7.554812206180089, "lon": -31.516559509620436, "alt_km": 729.0712411564546, "timestamp": "2025-12-22T22:44:21.363516+00:00", "meta": {"OBJECT_NAME": "IRIDIUM 33 DEB", "OBJECT_ID": "1997-051DY", "EPOCH": "2025-12-22T04:23:22.180704", "MEAN_MOTION": 14.42352181, "ECCENTRICITY": 0.00556524, "INCLINATION": 86.2122, "RA_OF_ASC_NODE": 328.3204, "ARG_OF_PERICENTER": 63.8456, "MEAN_ANOMALY": 296.8453, "EPHEMERIS_TYPE": 0, "CLASSIFICATION_TYPE": "U", "NORAD_CAT_ID": 34145, "ELEMENT_SET_NO": 999, "REV_AT_EPOCH": 87774, "BSTAR": 0.0011263527, "MEAN_MOTION_DOT": 3.81e-05, "MEAN_MOTION_DDOT": 0}, "tle": {"line1": "1 34145U 97051DY  25356.18289561  .00003810  00000+0  11264-2 0  9997", "line2": "2 34145  86.2122 328.3204 0055652  63.8456 296.8453 14.42352181877748"}}, "geometry": {"type": "Point", "coordinates": [-31.516559509620436, 7.554812206180089]}}, {"type": "Feature", "properties": {"norad_id": 34146, "name": "IRIDIUM 33 DEB", "group": "iridium-33-debris", "lat": -73.69896002344292, "lon": 178.13133624960247, "alt_km": 728.783397240335, "timestamp": "2025-12-22T22:44:21.363526+00:00", "meta": {"OBJECT_NAME": "IRIDIUM 33 DEB", "OBJECT_ID": "1997-051DZ", "EPOCH": "2025-12-22T12:12:34.513056", "MEAN_MOTION": 14.49108605, "ECCENTRICITY": 0.0026525, "INCLINATION": 86.2838, "RA_OF_ASC_NODE": 345.4841, "ARG_OF_PERICENTER": 187.7667, "MEAN_ANOMALY": 298.6983, "EPHEMERIS_TYPE": 0, "CLASSIFICATION_TYPE": "U", "NORAD_CAT_ID": 34146, "ELEMENT_SET_NO": 999, "REV_AT_EPOCH": 88248, "BSTAR": 0.00085220356, "MEAN_MOTION_DOT": 3.272e-05, "MEAN_MOTION_DDOT": 0}, "tle": {"line1": "1 34146U 97051DZ  25356.50873279  .00003272  00000+0  85220-3 0  9995", "line2": "2 34146  86.2838 345.4841 0026525 187.7667 298.6983 14.49108605882489"}}, "geometry": {"type": "Point", "coordinates": [178.13133624960247, -73.69896002344292]}}, {"type": "Feature", "properties": {"norad_id": 34159, "name": "IRIDIUM 33 DEB", "group": "iridium-33-debris", "lat": -59.08626512308775, "lon": 37.76921551007426, "alt_km": 758.3263007238038, "timestamp": "2025-12-22T22:44:21.363536+00:00", "meta": {"OBJECT_NAME": "IRIDIUM 33 DEB", "OBJECT_ID": "1997-051EN", "EPOCH": "2025-12-22T02:58:50.860992", "MEAN_MOTION": 14.38515401, "ECCENTRICITY": 0.00260752, "INCLINATION": 86.3498, "RA_OF_ASC_NODE": 44.2398, "ARG_OF_PERICENTER": 254.6532, "MEAN_ANOMALY": 105.1785, "EPHEMERIS_TYPE": 0, "CLASSIFICATION_TYPE": "U", "NORAD_CAT_ID": 34159, "ELEMENT_SET_NO": 999, "REV_AT_EPOCH": 88094, "BSTAR": 0.00034381361, "MEAN_MOTION_DOT": 1.073e-05, "MEAN_MOTION_DDOT": 0}, "tle": {"line1": "1 34159U 97051EN  25356.12419978  .00001073  00000+0  34381-3 0  9998", "line2": "2 34159  86.3498  44.2398 0026075 254.6532 105.1785 14.38515401880947"}}, "geometry": {"type": "Point", "coordinates": [37.76921551007426, -59.08626512308775]}}, {"type": "Feature", "properties": {"norad_id": 34350, "name": "IRIDIUM 33 DEB", "group": "iridium-33-debris", "lat": -42.47856257990998, "lon": -178.25081573945732, "alt_km": 755.3730562853543, "timestamp": "2025-12-22T22:44:21.363547+00:00", "meta": {"OBJECT_NAME": "IRIDIUM 33 DEB", "OBJECT_ID": "1997-051ES", "EPOCH": "2025-12-22T12:19:49.336608", "MEAN_MOTION": 14.45408788, "ECCENTRICITY": 0.0023434, "INCLINATION": 86.3272, "RA_OF_ASC_NODE": 358.5656, "ARG_OF_PERICENTER": 105.2385, "MEAN_ANOMALY": 21.6906, "EPHEMERIS_TYPE": 0, "CLASSIFICATION_TYPE": "U", "NORAD_CAT_ID": 34350, "ELEMENT_SET_NO": 999, "REV_AT_EPOCH": 88434, "BSTAR": 0.00030728389, "MEAN_MOTION_DOT": 1.104e-05, "MEAN_MOTION_DDOT": 0}, "tle": {"line1": "1 34350U 97051ES  25356.51376547  .00001104  00000+0  30728-3 0  9994", "line2": "2 34350  86.3272 358.5656 0023434 105.2385  21.6906 14.45408788884343"}}, "geometry": {"type": "Point", "coordinates": [-178.25081573945732, -42.47856257990998]}}, {"type": "Feature", "properties": {"norad_id": 34366, "name": "IRIDIUM 33 DEB", "group": "iridium-33-debris", "lat": 30.255866943070437, "lon": -137.24963097395653, "alt_km": 698.507005914068, "timestamp": "2025-12-22T22:44:21.363558+00:00", "meta": {"OBJECT_NAME": "IRIDIUM 33 DEB", "OBJECT_ID": "1997-051FJ", "EPOCH": "2025-12-22T10:47:10.372704", "MEAN_MOTION": 14.54128755, "ECCENTRICITY": 0.00230356, "INCLINATION": 86.3686, "RA_OF_ASC_NODE": 45.09, "ARG_OF_PERICENTER": 109.4758, "MEAN_ANOMALY": 314.4093, "EPHEMERIS_TYPE": 0, "CLASSIFICATION_TYPE": "U", "NORAD_CAT_ID": 34366, "ELEMENT_SET_NO": 999, "REV_AT_EPOCH": 88323, "BSTAR": 0.000894432, "MEAN_MOTION_DOT": 3.813e-05, "MEAN_MOTION_DDOT": 0}, "tle": {"line1": "1 34366U 97051FJ  25356.44942561  .00003813  00000+0  89443-3 0  9995", "line2": "2 34366  86.3686  45.0900 0023035 109.4758 314.4093 14.54128755883236"}}, "geometry": {"type": "Point", "coordinates": [-137.24963097395653, 30.255866943070437]}}]}